[{"OBJECT_NAME":"STARLINK-5277","OBJECT_ID":"2023-010A","EPOCH":"2026-03-09T22:55:25.480992","MEAN_MOTION":14.98334733,"ECCENTRICITY":0.000306,"INCLINATION":70.0003,"RA_OF_ASC_NODE":43.87,"ARG_OF_PERICENTER":270.0377,"MEAN_ANOMALY":90.0431,"EPHEMERIS_TYPE":0,"CLASSIFICATION_TYPE":"U","NORAD_CAT_ID":55269,"ELEMENT_SET_NO":999,"REV_AT_EPOCH":17310,"BSTAR":3.0717251e-5,"MEAN_MOTION_DOT":2.74e-6,"MEAN_MOTION_DDOT":0},{"OBJECT_NAME":"GEESAT-2 04","OBJECT_ID":"2024-023D","EPOCH":"2026-03-09T22:58:49.443744","MEAN_MOTION":14.96681304,"ECCENTRICITY":0.00064656,"INCLINATION":49.992,"RA_OF_ASC_NODE":72.838,"ARG_OF_PERICENTER":6.7244,"MEAN_ANOMALY":353.3785,"EPHEMERIS_TYPE":0,"CLASSIFICATION_TYPE":"U","NORAD_CAT_ID":58908,"ELEMENT_SET_NO":999,"REV_AT_EPOCH":11446,"BSTAR":0.0002767609,"MEAN_MOTION_DOT":2.943e-5,"MEAN_MOTION_DDOT":0}]
